CCSDS_OMM_VERS = 2.0
CREATION_DATE  = 
ORIGINATOR     = 

OBJECT_NAME    = HULIANWANG DIGUI-106
OBJECT_ID      = 2025-285B
CENTER_NAME    = EARTH
REF_FRAME      = TEME
TIME_SYSTEM    = UTC
MEAN_ELEMENT_THEORY = SGP/SGP4

EPOCH          = 2025-12-22T22:50:02.232672
MEAN_MOTION    = 14.03703855
ECCENTRICITY   = .00068654
INCLINATION    = 50.0063
RA_OF_ASC_NODE = 75.6649
ARG_OF_PERICENTER = 310.1715
MEAN_ANOMALY   = 49.8588

EPHEMERIS_TYPE = 0
CLASSIFICATION_TYPE = U
NORAD_CAT_ID   = 66916
ELEMENT_SET_NO = 999
REV_AT_EPOCH   = 234
BSTAR          = .11986006E-3
MEAN_MOTION_DOT = .38E-6
MEAN_MOTION_DDOT = 0

CCSDS_OMM_VERS = 2.0
CREATION_DATE  = 
ORIGINATOR     = 

OBJECT_NAME    = HULIANWANG DIGUI-107
OBJECT_ID      = 2025-285C
CENTER_NAME    = EARTH
REF_FRAME      = TEME
TIME_SYSTEM    = UTC
MEAN_ELEMENT_THEORY = SGP/SGP4

EPOCH          = 2025-12-22T22:47:28.114080
MEAN_MOTION    = 14.03663957
ECCENTRICITY   = .00075109
INCLINATION    = 50.0039
RA_OF_ASC_NODE = 75.6481
ARG_OF_PERICENTER = 319.5725
MEAN_ANOMALY   = 40.4621

EPHEMERIS_TYPE = 0
CLASSIFICATION_TYPE = U
NORAD_CAT_ID   = 66917
ELEMENT_SET_NO = 999
REV_AT_EPOCH   = 234
BSTAR          = .12529436E-3
MEAN_MOTION_DOT = .47E-6
MEAN_MOTION_DDOT = 0

CCSDS_OMM_VERS = 2.0
CREATION_DATE  = 
ORIGINATOR     = 

OBJECT_NAME    = HULIANWANG DIGUI-108
OBJECT_ID      = 2025-285D
CENTER_NAME    = EARTH
REF_FRAME      = TEME
TIME_SYSTEM    = UTC
MEAN_ELEMENT_THEORY = SGP/SGP4

EPOCH          = 2025-12-22T22:46:29.108064
MEAN_MOTION    = 14.03602944
ECCENTRICITY   = .00066599
INCLINATION    = 50.0061
RA_OF_ASC_NODE = 75.6488
ARG_OF_PERICENTER = 314.1943
MEAN_ANOMALY   = 45.8414

EPHEMERIS_TYPE = 0
CLASSIFICATION_TYPE = U
NORAD_CAT_ID   = 66918
ELEMENT_SET_NO = 999
REV_AT_EPOCH   = 234
BSTAR          = .12301194E-3
MEAN_MOTION_DOT = .43E-6
MEAN_MOTION_DDOT = 0

CCSDS_OMM_VERS = 2.0
CREATION_DATE  = 
ORIGINATOR     = 

OBJECT_NAME    = HULIANWANG DIGUI-109
OBJECT_ID      = 2025-285E
CENTER_NAME    = EARTH
REF_FRAME      = TEME
TIME_SYSTEM    = UTC
MEAN_ELEMENT_THEORY = SGP/SGP4

EPOCH          = 2025-12-22T22:44:10.129344
MEAN_MOTION    = 14.03727136
ECCENTRICITY   = .00079116
INCLINATION    = 50.0075
RA_OF_ASC_NODE = 75.6455
ARG_OF_PERICENTER = 326.4909
MEAN_ANOMALY   = 33.5494

EPHEMERIS_TYPE = 0
CLASSIFICATION_TYPE = U
NORAD_CAT_ID   = 66919
ELEMENT_SET_NO = 999
REV_AT_EPOCH   = 234
BSTAR          = .13508329E-3
MEAN_MOTION_DOT = .62E-6
MEAN_MOTION_DDOT = 0

CCSDS_OMM_VERS = 2.0
CREATION_DATE  = 
ORIGINATOR     = 

OBJECT_NAME    = HULIANWANG DIGUI-110
OBJECT_ID      = 2025-285F
CENTER_NAME    = EARTH
REF_FRAME      = TEME
TIME_SYSTEM    = UTC
MEAN_ELEMENT_THEORY = SGP/SGP4

EPOCH          = 2025-12-22T22:43:01.733376
MEAN_MOTION    = 14.03683343
ECCENTRICITY   = .00056096
INCLINATION    = 50.0119
RA_OF_ASC_NODE = 75.6480
ARG_OF_PERICENTER = 323.6124
MEAN_ANOMALY   = 36.4399

EPHEMERIS_TYPE = 0
CLASSIFICATION_TYPE = U
NORAD_CAT_ID   = 66920
ELEMENT_SET_NO = 999
REV_AT_EPOCH   = 234
BSTAR          = .12094669E-3
MEAN_MOTION_DOT = .4E-6
MEAN_MOTION_DDOT = 0

CCSDS_OMM_VERS = 2.0
CREATION_DATE  = 
ORIGINATOR     = 

OBJECT_NAME    = HULIANWANG DIGUI-111
OBJECT_ID      = 2025-285G
CENTER_NAME    = EARTH
REF_FRAME      = TEME
TIME_SYSTEM    = UTC
MEAN_ELEMENT_THEORY = SGP/SGP4

EPOCH          = 2025-12-22T22:41:51.924768
MEAN_MOTION    = 14.03632901
ECCENTRICITY   = .00066947
INCLINATION    = 50.0123
RA_OF_ASC_NODE = 75.6471
ARG_OF_PERICENTER = 327.3994
MEAN_ANOMALY   = 32.6496

EPHEMERIS_TYPE = 0
CLASSIFICATION_TYPE = U
NORAD_CAT_ID   = 66921
ELEMENT_SET_NO = 999
REV_AT_EPOCH   = 234
BSTAR          = .12623999E-3
MEAN_MOTION_DOT = .48E-6
MEAN_MOTION_DDOT = 0

CCSDS_OMM_VERS = 2.0
CREATION_DATE  = 
ORIGINATOR     = 

OBJECT_NAME    = HULIANWANG DIGUI-112
OBJECT_ID      = 2025-285H
CENTER_NAME    = EARTH
REF_FRAME      = TEME
TIME_SYSTEM    = UTC
MEAN_ELEMENT_THEORY = SGP/SGP4

EPOCH          = 2025-12-22T22:40:20.222400
MEAN_MOTION    = 14.03662888
ECCENTRICITY   = .0006514
INCLINATION    = 50.0095
RA_OF_ASC_NODE = 75.6340
ARG_OF_PERICENTER = 338.0735
MEAN_ANOMALY   = 21.9890

EPHEMERIS_TYPE = 0
CLASSIFICATION_TYPE = U
NORAD_CAT_ID   = 66922
ELEMENT_SET_NO = 999
REV_AT_EPOCH   = 234
BSTAR          = .13368963E-3
MEAN_MOTION_DOT = .6E-6
MEAN_MOTION_DDOT = 0

CCSDS_OMM_VERS = 2.0
CREATION_DATE  = 
ORIGINATOR     = 

OBJECT_NAME    = HULIANWANG DIGUI-113
OBJECT_ID      = 2025-285J
CENTER_NAME    = EARTH
REF_FRAME      = TEME
TIME_SYSTEM    = UTC
MEAN_ELEMENT_THEORY = SGP/SGP4

EPOCH          = 2025-12-22T22:38:38.151168
MEAN_MOTION    = 14.03700802
ECCENTRICITY   = .00051276
INCLINATION    = 50.0095
RA_OF_ASC_NODE = 75.6294
ARG_OF_PERICENTER = 332.5915
MEAN_ANOMALY   = 27.4718

EPHEMERIS_TYPE = 0
CLASSIFICATION_TYPE = U
NORAD_CAT_ID   = 66923
ELEMENT_SET_NO = 999
REV_AT_EPOCH   = 234
BSTAR          = .12711011E-3
MEAN_MOTION_DOT = .5E-6
MEAN_MOTION_DDOT = 0

CCSDS_OMM_VERS = 2.0
CREATION_DATE  = 
ORIGINATOR     = 

OBJECT_NAME    = CZ-8A R/B
OBJECT_ID      = 2025-285K
CENTER_NAME    = EARTH
REF_FRAME      = TEME
TIME_SYSTEM    = UTC
MEAN_ELEMENT_THEORY = SGP/SGP4

EPOCH          = 2025-12-22T22:19:33.397824
MEAN_MOTION    = 14.30505720
ECCENTRICITY   = .01192444
INCLINATION    = 50.0083
RA_OF_ASC_NODE = 72.7766
ARG_OF_PERICENTER = 142.6707
MEAN_ANOMALY   = 218.2569

EPHEMERIS_TYPE = 0
CLASSIFICATION_TYPE = U
NORAD_CAT_ID   = 66924
ELEMENT_SET_NO = 999
REV_AT_EPOCH   = 238
BSTAR          = .57393836E-4
MEAN_MOTION_DOT = -.4E-7
MEAN_MOTION_DDOT = 0

CCSDS_OMM_VERS = 2.0
CREATION_DATE  = 
ORIGINATOR     = 

OBJECT_NAME    = STARLINK-35945
OBJECT_ID      = 2025-286A
CENTER_NAME    = EARTH
REF_FRAME      = TEME
TIME_SYSTEM    = UTC
MEAN_ELEMENT_THEORY = SGP/SGP4

EPOCH          = 2025-12-22T22:00:03.000096
MEAN_MOTION    = 15.72639228
ECCENTRICITY   = .00010967
INCLINATION    = 53.1590
RA_OF_ASC_NODE = 359.4817
ARG_OF_PERICENTER = 100.7305
MEAN_ANOMALY   = 138.1978

EPHEMERIS_TYPE = 0
CLASSIFICATION_TYPE = U
NORAD_CAT_ID   = 66925
ELEMENT_SET_NO = 999
REV_AT_EPOCH   = 362
BSTAR          = -.15724128E-1
MEAN_MOTION_DOT = -.1875975E-1
MEAN_MOTION_DDOT = 0

CCSDS_OMM_VERS = 2.0
CREATION_DATE  = 
ORIGINATOR     = 

OBJECT_NAME    = STARLINK-35942
OBJECT_ID      = 2025-286B
CENTER_NAME    = EARTH
REF_FRAME      = TEME
TIME_SYSTEM    = UTC
MEAN_ELEMENT_THEORY = SGP/SGP4

EPOCH          = 2025-12-22T22:00:03.000096
MEAN_MOTION    = 15.70975524
ECCENTRICITY   = .00012144
INCLINATION    = 53.1595
RA_OF_ASC_NODE = 359.4802
ARG_OF_PERICENTER = 109.5371
MEAN_ANOMALY   = 129.8808

EPHEMERIS_TYPE = 0
CLASSIFICATION_TYPE = U
NORAD_CAT_ID   = 66926
ELEMENT_SET_NO = 999
REV_AT_EPOCH   = 362
BSTAR          = -.17024417E-1
MEAN_MOTION_DOT = -.1928028E-1
MEAN_MOTION_DDOT = 0

CCSDS_OMM_VERS = 2.0
CREATION_DATE  = 
ORIGINATOR     = 

OBJECT_NAME    = STARLINK-35943
OBJECT_ID      = 2025-286C
CENTER_NAME    = EARTH
REF_FRAME      = TEME
TIME_SYSTEM    = UTC
MEAN_ELEMENT_THEORY = SGP/SGP4

EPOCH          = 2025-12-22T22:00:03.000096
MEAN_MOTION    = 15.70977058
ECCENTRICITY   = .00012196
INCLINATION    = 53.1593
RA_OF_ASC_NODE = 359.4767
ARG_OF_PERICENTER = 108.4429
MEAN_ANOMALY   = 132.8938

EPHEMERIS_TYPE = 0
CLASSIFICATION_TYPE = U
NORAD_CAT_ID   = 66927
ELEMENT_SET_NO = 999
REV_AT_EPOCH   = 362
BSTAR          = -.17074953E-1
MEAN_MOTION_DOT = -.1933212E-1
MEAN_MOTION_DDOT = 0

