HULIANWANG DIGUI-106    
1 66916U 25285B   25356.95141473  .00000038  00000+0  11986-3 0  9993
2 66916  50.0063  75.6649 0006865 310.1715  49.8588 14.03703855  2341
HULIANWANG DIGUI-107    
1 66917U 25285C   25356.94963095  .00000047  00000+0  12529-3 0  9999
2 66917  50.0039  75.6481 0007510 319.5725  40.4621 14.03663957  2344
HULIANWANG DIGUI-108    
1 66918U 25285D   25356.94894801  .00000043  00000+0  12301-3 0  9992
2 66918  50.0061  75.6488 0006659 314.1943  45.8414 14.03602944  2341
HULIANWANG DIGUI-109    
1 66919U 25285E   25356.94733946  .00000062  00000+0  13508-3 0  9996
2 66919  50.0075  75.6455 0007911 326.4909  33.5494 14.03727136  2344
HULIANWANG DIGUI-110    
1 66920U 25285F   25356.94654784  .00000040  00000+0  12095-3 0  9996
2 66920  50.0119  75.6480 0005609 323.6124  36.4399 14.03683343  2340
HULIANWANG DIGUI-111    
1 66921U 25285G   25356.94573987  .00000048  00000+0  12624-3 0  9998
2 66921  50.0123  75.6471 0006694 327.3994  32.6496 14.03632901  2347
HULIANWANG DIGUI-112    
1 66922U 25285H   25356.94467850  .00000060  00000+0  13369-3 0  9991
2 66922  50.0095  75.6340 0006514 338.0735  21.9890 14.03662888  2340
HULIANWANG DIGUI-113    
1 66923U 25285J   25356.94349712  .00000050  00000+0  12711-3 0  9997
2 66923  50.0095  75.6294 0005127 332.5915  27.4718 14.03700802  2346
CZ-8A R/B               
1 66924U 25285K   25356.93024766 -.00000004  00000+0  57394-4 0  9993
2 66924  50.0083  72.7766 0119244 142.6707 218.2569 14.30505720  2381
STARLINK-35945          
1 66925U 25286A   25356.91670139 -.01875975  00000+0 -15724-1 0  9991
2 66925  53.1590 359.4817 0001096 100.7305 138.1978 15.72639228  3625
STARLINK-35942          
1 66926U 25286B   25356.91670139 -.01928028  00000+0 -17024-1 0  9995
2 66926  53.1595 359.4802 0001214 109.5371 129.8808 15.70975524  3626
STARLINK-35943          
1 66927U 25286C   25356.91670139 -.01933212  00000+0 -17075-1 0  9993
2 66927  53.1593 359.4767 0001219 108.4429 132.8938 15.70977058  3624
